FENGYUN 4C              
1 67246U 25312A   26063.61086617 -.00000334  00000+0  00000+0 0  9999
2 67246   0.0333 290.9466 0000760  74.3529 149.9583  1.00273490   730
SHIJIAN-29A (SJ-29A)    
1 67302U 25315A   26063.85587556 -.00000075  00000+0  00000+0 0  9991
2 67302   3.1330  97.8046 0002277 306.5064 139.4749  1.00273031   572
SHIJIAN-29B (SJ-29B)    
1 67403U 25315C   26063.85545742 -.00000076  00000+0  00000+0 0  9995
2 67403   3.1329  97.7877 0003908 317.3281 128.6023  1.00272753   649
JAM-E JAM 1             
1 67757U 26028B   26062.45557171  .00000140  00000+0  00000+0 0  9994
2 67757   0.5072 285.5539 0002449 116.0725 318.3556  1.00266787    60
