[{"OBJECT_NAME":"FENGYUN 4C","OBJECT_ID":"2025-312A","EPOCH":"2026-03-04T14:39:38.837088","MEAN_MOTION":1.0027349,"ECCENTRICITY":7.6e-5,"INCLINATION":0.0333,"RA_OF_ASC_NODE":290.9466,"ARG_OF_PERICENTER":74.3529,"MEAN_ANOMALY":149.9583,"EPHEMERIS_TYPE":0,"CLASSIFICATION_TYPE":"U","NORAD_CAT_ID":67246,"ELEMENT_SET_NO":999,"REV_AT_EPOCH":73,"BSTAR":0,"MEAN_MOTION_DOT":-3.34e-6,"MEAN_MOTION_DDOT":0},{"OBJECT_NAME":"SHIJIAN-29A (SJ-29A)","OBJECT_ID":"2025-315A","EPOCH":"2026-03-04T20:32:27.648384","MEAN_MOTION":1.00273031,"ECCENTRICITY":0.0002277,"INCLINATION":3.133,"RA_OF_ASC_NODE":97.8046,"ARG_OF_PERICENTER":306.5064,"MEAN_ANOMALY":139.4749,"EPHEMERIS_TYPE":0,"CLASSIFICATION_TYPE":"U","NORAD_CAT_ID":67302,"ELEMENT_SET_NO":999,"REV_AT_EPOCH":57,"BSTAR":0,"MEAN_MOTION_DOT":-7.5e-7,"MEAN_MOTION_DDOT":0},{"OBJECT_NAME":"SHIJIAN-29B (SJ-29B)","OBJECT_ID":"2025-315C","EPOCH":"2026-03-04T20:31:51.521088","MEAN_MOTION":1.00272753,"ECCENTRICITY":0.0003908,"INCLINATION":3.1329,"RA_OF_ASC_NODE":97.7877,"ARG_OF_PERICENTER":317.3281,"MEAN_ANOMALY":128.6023,"EPHEMERIS_TYPE":0,"CLASSIFICATION_TYPE":"U","NORAD_CAT_ID":67403,"ELEMENT_SET_NO":999,"REV_AT_EPOCH":64,"BSTAR":0,"MEAN_MOTION_DOT":-7.6e-7,"MEAN_MOTION_DDOT":0},{"OBJECT_NAME":"JAM-E JAM 1","OBJECT_ID":"2026-028B","EPOCH":"2026-03-03T10:56:01.395744","MEAN_MOTION":1.00266787,"ECCENTRICITY":0.00024495,"INCLINATION":0.5072,"RA_OF_ASC_NODE":285.5539,"ARG_OF_PERICENTER":116.0725,"MEAN_ANOMALY":318.3556,"EPHEMERIS_TYPE":0,"CLASSIFICATION_TYPE":"U","NORAD_CAT_ID":67757,"ELEMENT_SET_NO":999,"REV_AT_EPOCH":6,"BSTAR":0,"MEAN_MOTION_DOT":1.4e-6,"MEAN_MOTION_DDOT":0}]
